{
"type": "FeatureCollection",
"name": "jalan",
"crs": { "type": "name", "properties": { "name": "urn:ogc:def:crs:OGC:1.3:CRS84" } },
"xy_coordinate_resolution": 1e-14,
"features": [
{ "type": "Feature", "properties": { "OBJECTID": 176467.0, "LAYER": "Jalan", "NAMA_UNSUR": "Jalan Kabupaten", "PULAU": "Nusa Tenggara Timur", "panjang_km": 6.46 }, "geometry": { "type": "MultiLineString", "coordinates": [ [ [ 122.79424307458983, -8.16678696039274 ], [ 122.79048178258979, -8.16569691039273 ], [ 122.78734610158979, -8.16372089739274 ], [ 122.78629324558979, -8.16178970639276 ], [ 122.7851106885898, -8.15899830139272 ], [ 122.78469107258975, -8.15697079039272 ], [ 122.78466055458985, -8.15428238239274 ], [ 122.78395865058981, -8.14996891339273 ], [ 122.78269980058981, -8.14647751139272 ], [ 122.78190634358982, -8.14386730539274 ], [ 122.78208181958981, -8.14151840539272 ], [ 122.78208181958981, -8.13777332639272 ], [ 122.78228781258981, -8.13548546139275 ], [ 122.78358481058986, -8.13279800739274 ], [ 122.7858049635898, -8.13238506639276 ], [ 122.78941366758984, -8.13300876939273 ], [ 122.79165670958976, -8.13327770539273 ], [ 122.79571554758975, -8.13300781539276 ], [ 122.79875967558981, -8.13233833639275 ], [ 122.80208609158986, -8.13265400239276 ] ] ] } },
{ "type": "Feature", "properties": { "OBJECTID": 176469.0, "LAYER": "Jalan", "NAMA_UNSUR": "Jalan Propinsi", "PULAU": "Nusa Tenggara Timur", "panjang_km": 9.806 }, "geometry": { "type": "MultiLineString", "coordinates": [ [ [ 122.77684805458985, -8.41752701139272 ], [ 122.77359030358976, -8.41753750139275 ], [ 122.77158377258975, -8.41939335139272 ], [ 122.76983664158975, -8.42308597839274 ], [ 122.77031729258984, -8.42585640239274 ], [ 122.77090475658981, -8.42788391439273 ], [ 122.77155325458985, -8.42984848339272 ], [ 122.77237722958985, -8.43406277039275 ], [ 122.77154562558981, -8.43659572939275 ], [ 122.76853201458978, -8.44126015039273 ], [ 122.76652548358977, -8.44419842039274 ], [ 122.7652742635898, -8.44706135139272 ], [ 122.76467917058979, -8.44954948739273 ], [ 122.76517508158982, -8.45225696839275 ], [ 122.76703665358976, -8.45531063439272 ], [ 122.76851675558983, -8.45675163539277 ], [ 122.7709276445898, -8.46040802339273 ], [ 122.77193472458983, -8.46222286539272 ], [ 122.77347586258982, -8.46583919839275 ], [ 122.77409384358982, -8.46837787939272 ], [ 122.77448294258984, -8.47074394539276 ], [ 122.77487967058978, -8.47430305839275 ], [ 122.77583334558979, -8.47709350939276 ], [ 122.77811453458976, -8.47971039139275 ], [ 122.77959463658983, -8.48126678739276 ], [ 122.78212759558978, -8.48377781239275 ], [ 122.7845995195898, -8.48600941039273 ], [ 122.78820059358982, -8.49213486039274 ] ] ] } },
{ "type": "Feature", "properties": { "OBJECTID": 176781.0, "LAYER": "Jalan", "NAMA_UNSUR": "Jalan Lain", "PULAU": "Nusa Tenggara Timur", "panjang_km": 0.402 }, "geometry": { "type": "MultiLineString", "coordinates": [ [ [ 123.18757554379103, -8.3789430242649 ], [ 123.1898033277911, -8.37606483526489 ] ] ] } },
{ "type": "Feature", "properties": { "OBJECTID": 176782.0, "LAYER": "Jalan", "NAMA_UNSUR": "Jalan Lain", "PULAU": "Nusa Tenggara Timur", "panjang_km": 19.509 }, "geometry": { "type": "MultiLineString", "coordinates": [ [ [ 122.99920448886125, -8.44432023619159 ], [ 123.00195107086124, -8.44556382719158 ], [ 123.00559792186122, -8.44777349119155 ], [ 123.00781807486116, -8.45060399619157 ], [ 123.01083931586122, -8.45261338819156 ], [ 123.01306709886119, -8.45316842619157 ], [ 123.01511940586117, -8.45376733419155 ], [ 123.01868996286116, -8.45391706019156 ], [ 123.02060494086122, -8.45267728419159 ], [ 123.02230629586124, -8.45103601019158 ], [ 123.02421364386116, -8.44979718719159 ], [ 123.02757820686115, -8.44845632119156 ], [ 123.03011116586121, -8.44758847819158 ], [ 123.03235420786125, -8.44556192019157 ], [ 123.03394875186125, -8.44368604219155 ], [ 123.0359934288612, -8.44206384219157 ], [ 123.03849587086124, -8.44067529319155 ], [ 123.04208168586119, -8.43934491719155 ], [ 123.04469856886116, -8.43904927819155 ], [ 123.04924568786116, -8.43946984819157 ], [ 123.05395302386118, -8.44012311519159 ], [ 123.05695137586115, -8.44013360619154 ], [ 123.06014046286116, -8.43997624919157 ], [ 123.06351265586117, -8.43966630519159 ], [ 123.06754097586115, -8.43874791719158 ], [ 123.07038673986123, -8.4383464201916 ], [ 123.07322487486117, -8.43834832719156 ], [ 123.07576546286116, -8.43840173319156 ], [ 123.0781916108612, -8.43844655619156 ], [ 123.08196053086117, -8.43928578919158 ], [ 123.0844095668612, -8.43990377019158 ], [ 123.08750710086115, -8.44054177819159 ], [ 123.08997902486117, -8.44064954319159 ], [ 123.09254250186125, -8.44023851019156 ], [ 123.09658608086117, -8.43909696219159 ], [ 123.10028633686117, -8.43798974619155 ], [ 123.10289558986123, -8.43775704919155 ], [ 123.10777840286123, -8.43830350519155 ], [ 123.1097238978612, -8.43878606419158 ], [ 123.11230263386123, -8.43923429119157 ], [ 123.11602577786122, -8.44087842519158 ], [ 123.1178720918612, -8.43997911019155 ], [ 123.12006172786123, -8.43893006919156 ], [ 123.12338051386125, -8.43723920419156 ], [ 123.12569984986116, -8.43590406019157 ], [ 123.12810310986121, -8.43423608419155 ], [ 123.13056740386121, -8.43228295919155 ], [ 123.13271889286118, -8.43100026719159 ], [ 123.1353205168612, -8.42968228919155 ], [ 123.13809761586121, -8.42853692619158 ], [ 123.1424387418612, -8.4272885661916 ], [ 123.14452919586124, -8.42703679619157 ], [ 123.14717659586124, -8.42736772119158 ], [ 123.14982399586124, -8.42862371019159 ], [ 123.15210518486121, -8.42923120119158 ], [ 123.15425667386118, -8.43012574719156 ], [ 123.15628609286118, -8.43101171119158 ], [ 123.15889534586124, -8.43197015319159 ], [ 123.16115364686122, -8.43526795919157 ] ] ] } },
{ "type": "Feature", "properties": { "OBJECTID": 176788.0, "LAYER": "Jalan", "NAMA_UNSUR": "Jalan Kabupaten", "PULAU": "Nusa Tenggara Timur", "panjang_km": 9.944 }, "geometry": { "type": "MultiLineString", "coordinates": [ [ [ 122.99069998358978, -8.27519970239273 ], [ 122.99070761258982, -8.27173214239274 ], [ 122.98976919758975, -8.26972942639275 ], [ 122.98839590658982, -8.26726894739277 ], [ 122.98663351658975, -8.26346283239274 ], [ 122.98488638458976, -8.26160126039274 ], [ 122.98351309358982, -8.26010876039276 ], [ 122.98216269058976, -8.25839119239275 ], [ 122.98052237158977, -8.25647716839272 ], [ 122.97814962958985, -8.25340347639274 ], [ 122.97702047858975, -8.24848823839271 ], [ 122.97693655558983, -8.24471359539273 ], [ 122.97724173158981, -8.24215202639276 ], [ 122.97670767358984, -8.24018745739277 ], [ 122.9760820635898, -8.23776607839271 ], [ 122.97480032558981, -8.23370056439272 ], [ 122.97436544958983, -8.23094826039271 ], [ 122.97328970558983, -8.22831898039276 ], [ 122.97238943658984, -8.22450619039272 ], [ 122.97190878458976, -8.22060566239275 ], [ 122.97098562758977, -8.21827297539277 ], [ 122.96910879658977, -8.21550445839272 ], [ 122.96704886058986, -8.21398239439275 ], [ 122.96457693658984, -8.21152668339277 ], [ 122.96243307658979, -8.20833759639276 ], [ 122.95972464158986, -8.20592575439274 ], [ 122.95819113358978, -8.20443134639276 ], [ 122.95520041058985, -8.20297699339271 ], [ 122.9520799885898, -8.20277386039276 ], [ 122.95032522758977, -8.20098476739274 ] ] ] } },
{ "type": "Feature", "properties": { "OBJECTID": 178842.0, "LAYER": "Jalan", "NAMA_UNSUR": "Jalan Lain", "PULAU": "Nusa Tenggara Timur", "panjang_km": 7.468 }, "geometry": { "type": "MultiLineString", "coordinates": [ [ [ 123.23694535579104, -8.29806476726484 ], [ 123.2349540837911, -8.29529815726486 ], [ 123.23332902279107, -8.29323154526484 ], [ 123.23091050479105, -8.29187065226487 ], [ 123.22852250479106, -8.29102855826487 ], [ 123.22547074679109, -8.28976398526485 ], [ 123.22207566679107, -8.28824669026487 ], [ 123.22029801779105, -8.2869153602649 ], [ 123.21830674579111, -8.28506141726488 ], [ 123.21722337179109, -8.28255706926488 ], [ 123.21654435479105, -8.27984863426489 ], [ 123.21771928179102, -8.27732521126488 ], [ 123.21992417679111, -8.27495723826489 ], [ 123.22228928979111, -8.27265316126487 ], [ 123.22204514879105, -8.26846557726484 ], [ 123.22078629879105, -8.26601558826489 ], [ 123.21895524379103, -8.2633119212649 ], [ 123.21700211879103, -8.26186233626485 ], [ 123.21551438679104, -8.26042324126488 ], [ 123.21415635479106, -8.25871521126485 ], [ 123.21311875679102, -8.25649887226488 ], [ 123.21240159379103, -8.25457817226485 ], [ 123.21196671879103, -8.25170856526487 ], [ 123.21197434779107, -8.24936061926489 ], [ 123.21170731879103, -8.24654537326488 ] ] ] } },
{ "type": "Feature", "properties": { "OBJECTID": 178874.0, "LAYER": "Jalan", "NAMA_UNSUR": "Jalan Lain", "PULAU": "Nusa Tenggara Timur", "panjang_km": 7.079 }, "geometry": { "type": "MultiLineString", "coordinates": [ [ [ 123.29145737979105, -8.37824016626488 ], [ 123.29389115679102, -8.37582832426487 ], [ 123.29497453079104, -8.37393146626486 ], [ 123.29711076179105, -8.36950260226488 ], [ 123.29901048079104, -8.36615711326486 ], [ 123.29981919679109, -8.36281734526487 ], [ 123.30085679379103, -8.35725456326484 ], [ 123.30084153579106, -8.35417133426487 ], [ 123.30072709479101, -8.3506761182649 ], [ 123.30024644279105, -8.34648948726486 ], [ 123.30010911379101, -8.34361988126487 ], [ 123.30042191879103, -8.33980327726486 ], [ 123.30044480679102, -8.33700710426488 ], [ 123.29943009779107, -8.33313137126485 ], [ 123.29846879379103, -8.33046775926486 ], [ 123.29662247979105, -8.32707363226488 ], [ 123.29439469679109, -8.32315021626486 ], [ 123.294066632791, -8.32089573026489 ], [ 123.29366990479106, -8.31814724026485 ] ] ] } },
{ "type": "Feature", "properties": { "OBJECTID": 178875.0, "LAYER": "Jalan", "NAMA_UNSUR": "Jalan Lain", "PULAU": "Nusa Tenggara Timur", "panjang_km": 11.489 }, "geometry": { "type": "MultiLineString", "coordinates": [ [ [ 123.1898033277911, -8.37606483526489 ], [ 123.19436570579104, -8.37836509826489 ], [ 123.19655534179107, -8.37851673226485 ], [ 123.20172044179107, -8.37913471326486 ], [ 123.20610734379103, -8.37925678326489 ], [ 123.21068497979105, -8.37910228826489 ], [ 123.21643754379103, -8.37956958826485 ], [ 123.22271653579106, -8.38103347926487 ], [ 123.22770615979108, -8.38289695826488 ], [ 123.23211594979104, -8.38382488326486 ], [ 123.23734208479108, -8.38439041226489 ], [ 123.24124833479108, -8.38495021926489 ], [ 123.24468919179107, -8.38543563926485 ], [ 123.25044175479105, -8.38590294026487 ], [ 123.25399705279109, -8.38530498626487 ], [ 123.25787278579106, -8.38421589026488 ], [ 123.26279374479101, -8.38276249026488 ], [ 123.26544114479101, -8.38195568226488 ], [ 123.26882859579111, -8.38112503126488 ], [ 123.27205582979106, -8.38023048526484 ], [ 123.27452775379108, -8.37930542126484 ], [ 123.27719804179107, -8.37918907226485 ], [ 123.28022691179105, -8.37965637326486 ], [ 123.28298112279107, -8.38017612526486 ], [ 123.28610917479104, -8.38001495426486 ], [ 123.28875657479104, -8.37903839226486 ], [ 123.29145737979105, -8.37824016626488 ] ] ] } },
{ "type": "Feature", "properties": { "OBJECTID": 179026.0, "LAYER": "Jalan", "NAMA_UNSUR": "Jalan Kabupaten", "PULAU": "Nusa Tenggara Timur", "panjang_km": 4.133 }, "geometry": { "type": "MultiLineString", "coordinates": [ [ [ 122.81895468358978, -8.18503361039273 ], [ 122.81875631858982, -8.18100910539276 ], [ 122.81887075958976, -8.17895775139276 ], [ 122.81832144358982, -8.17515545239273 ], [ 122.81707785258978, -8.17131595939275 ], [ 122.8147966635898, -8.17070560739272 ], [ 122.81230948058983, -8.17070370039277 ], [ 122.80941793958978, -8.17063026739276 ], [ 122.80716726858982, -8.17057590839277 ], [ 122.80461142158977, -8.16971474039274 ], [ 122.80194876258982, -8.16868191039275 ], [ 122.79841635258977, -8.16766434039276 ], [ 122.79628775158979, -8.16734199839276 ], [ 122.79424307458983, -8.16678696039274 ] ] ] } },
{ "type": "Feature", "properties": { "OBJECTID": 179028.0, "LAYER": "Jalan", "NAMA_UNSUR": "Jalan Propinsi", "PULAU": "Nusa Tenggara Timur", "panjang_km": 14.836 }, "geometry": { "type": "MultiLineString", "coordinates": [ [ [ 122.78703868758983, -8.49015844939276 ], [ 122.7780458695898, -8.49314003339275 ], [ 122.77437613058983, -8.49468403139274 ], [ 122.76978323558986, -8.49739628139274 ], [ 122.76672384858985, -8.49845962839276 ], [ 122.76368734958983, -8.49906425839275 ], [ 122.76040670958976, -8.49993687039272 ], [ 122.75842306658986, -8.50025062839272 ], [ 122.75560782058979, -8.50115280439273 ], [ 122.75310537858975, -8.50269203539272 ], [ 122.75115225358975, -8.50357990539276 ], [ 122.7461015945898, -8.50386219339275 ], [ 122.74359915358976, -8.50432663239274 ], [ 122.74117300558983, -8.50530128839272 ], [ 122.7389833695898, -8.50628643339273 ], [ 122.73679373358978, -8.50830250139272 ], [ 122.73485586758984, -8.51010303839273 ], [ 122.73209402658979, -8.51208954139274 ], [ 122.73005697758977, -8.51348667439276 ], [ 122.72707388458976, -8.51522999139273 ], [ 122.72352621658975, -8.51787548339273 ], [ 122.72101614558979, -8.51953106239272 ], [ 122.71761343558985, -8.52143364239275 ], [ 122.71501181158983, -8.52263145739277 ], [ 122.71282980558983, -8.52350883839272 ], [ 122.71039602858976, -8.52482395539277 ], [ 122.70743582358985, -8.52503567039274 ], [ 122.7043916945898, -8.52466278439276 ], [ 122.70159933658984, -8.52500038439273 ], [ 122.69889090158979, -8.52595596639275 ], [ 122.69630453658984, -8.52681331939276 ], [ 122.69187948758982, -8.52627449339274 ], [ 122.68767569158975, -8.52499275539275 ], [ 122.68443319858984, -8.52301674239276 ], [ 122.68167135758979, -8.52152614939273 ], [ 122.67772696058985, -8.51979809139276 ], [ 122.67463705658982, -8.51914768539273 ], [ 122.67089102358985, -8.51891594239276 ], [ 122.66883871658975, -8.52053623539273 ], [ 122.66619131658975, -8.52491836839276 ] ] ] } },
{ "type": "Feature", "properties": { "OBJECTID": 179052.0, "LAYER": "Jalan", "NAMA_UNSUR": "Jalan Kabupaten", "PULAU": "Nusa Tenggara Timur", "panjang_km": 17.552 }, "geometry": { "type": "MultiLineString", "coordinates": [ [ [ 122.94633505458985, -8.20009403539273 ], [ 122.95044729758975, -8.20629673339277 ], [ 122.94850943158981, -8.20803623539273 ], [ 122.9462206135898, -8.21313553139275 ], [ 122.9439317945898, -8.21600418439276 ], [ 122.94090292558981, -8.21752529439276 ], [ 122.93756125058981, -8.21839886039276 ], [ 122.93521902658979, -8.21898250939272 ], [ 122.93214438058983, -8.22130089139272 ], [ 122.93022177258975, -8.22269897739271 ], [ 122.92833731258982, -8.22438602739276 ], [ 122.92549154858985, -8.22700100239273 ], [ 122.92308828958978, -8.22860412939274 ], [ 122.92140219258984, -8.22996025439271 ], [ 122.91851065258977, -8.23320179339276 ], [ 122.91735098458976, -8.23538475339273 ], [ 122.91601584058976, -8.23891907039273 ], [ 122.91494009558978, -8.24282245939274 ], [ 122.91394827458983, -8.24632244439276 ], [ 122.91248343058983, -8.24995498939272 ], [ 122.91098806958981, -8.25309448539274 ], [ 122.90958426058985, -8.25559883439273 ], [ 122.90789816458978, -8.25810127539272 ], [ 122.90623495658981, -8.26111393339277 ], [ 122.90472433658984, -8.26343899139276 ], [ 122.90324423358977, -8.26623802539273 ], [ 122.9013750325898, -8.27100639639274 ], [ 122.90081808658984, -8.27395229639273 ], [ 122.90075705158979, -8.27721481639275 ], [ 122.90119955658982, -8.27980594939276 ], [ 122.90106985658981, -8.28346233639273 ], [ 122.90080282758977, -8.28744774139271 ], [ 122.89926931958981, -8.28909092239273 ], [ 122.89489767658979, -8.29083996139274 ], [ 122.89302084558979, -8.29355697939274 ], [ 122.89125845558983, -8.29621963839275 ], [ 122.88900778358978, -8.29742889739275 ], [ 122.88585684358982, -8.29901199639277 ], [ 122.88278982758978, -8.30132942539273 ], [ 122.8809969195898, -8.30239849439277 ], [ 122.87748739758975, -8.30212478939272 ], [ 122.87530539158975, -8.30179291039274 ], [ 122.87283346758984, -8.30151443839275 ], [ 122.87051413158981, -8.30066280639271 ], [ 122.86817953658984, -8.29998092939273 ], [ 122.86545584258984, -8.29888706539275 ], [ 122.86202261558977, -8.29833488739273 ], [ 122.85982534958983, -8.29846077239272 ], [ 122.85700247358984, -8.29930954339271 ] ] ] } },
{ "type": "Feature", "properties": { "OBJECTID": 179053.0, "LAYER": "Jalan", "NAMA_UNSUR": "Jalan Kabupaten", "PULAU": "Nusa Tenggara Timur", "panjang_km": 19.465 }, "geometry": { "type": "MultiLineString", "coordinates": [ [ [ 122.85700247358984, -8.29930954339271 ], [ 122.85281393558985, -8.30083351439275 ], [ 122.84964773758982, -8.30057983739276 ], [ 122.84688589658977, -8.30153541839274 ], [ 122.84391806158983, -8.30186348239276 ], [ 122.84136984458981, -8.30197029439272 ], [ 122.83853170958976, -8.30207615239276 ], [ 122.83513662858975, -8.30169372839275 ], [ 122.83265707558981, -8.30163936939276 ], [ 122.82840750258977, -8.30338745439274 ], [ 122.82425711258982, -8.30651550639276 ], [ 122.82212851158984, -8.30727749139276 ], [ 122.81945822358985, -8.30755310339275 ], [ 122.81567404358982, -8.30812054039272 ], [ 122.81257650958976, -8.30981140439274 ], [ 122.81121084758975, -8.31157951639272 ], [ 122.8086015945898, -8.31386261339275 ], [ 122.80631277658979, -8.31574325839272 ], [ 122.80472586258982, -8.31738643939274 ], [ 122.80291006658975, -8.31891899439272 ], [ 122.79977438558986, -8.32134418839273 ], [ 122.79741690258977, -8.32328777639275 ], [ 122.79493734958983, -8.32649402939272 ], [ 122.79229757858975, -8.32956581439275 ], [ 122.79128286958981, -8.33226757339274 ], [ 122.79005453658984, -8.33693962439274 ], [ 122.7874529135898, -8.34128361039273 ], [ 122.78372976858982, -8.34504967039276 ], [ 122.78246328958978, -8.34831409739273 ], [ 122.78168509058976, -8.35324840839273 ], [ 122.77848074558979, -8.35818176539276 ], [ 122.77717611858982, -8.36092644039273 ], [ 122.77597067458983, -8.36297397939272 ], [ 122.77494833558985, -8.36476116539272 ], [ 122.77257559358982, -8.36922245339274 ], [ 122.77052328658984, -8.37101440739274 ], [ 122.76718924158975, -8.37280159339274 ], [ 122.76413748358978, -8.37586193439272 ], [ 122.76382467858976, -8.37853985139275 ], [ 122.76396963658983, -8.38466053339276 ], [ 122.76458761758984, -8.38942890439272 ], [ 122.76532766858982, -8.39398365339274 ], [ 122.76593802058979, -8.39772301039271 ], [ 122.76676962458983, -8.40056782039271 ], [ 122.76853964358982, -8.40533237739276 ], [ 122.76983664158975, -8.40824966739273 ], [ 122.77128622658979, -8.41145496639273 ], [ 122.77292654558978, -8.41422157639277 ], [ 122.77684805458985, -8.41752701139272 ] ] ] } },
{ "type": "Feature", "properties": { "OBJECTID": 179054.0, "LAYER": "Jalan", "NAMA_UNSUR": "Jalan Lain", "PULAU": "Nusa Tenggara Timur", "panjang_km": 21.939 }, "geometry": { "type": "MultiLineString", "coordinates": [ [ [ 122.93826851486124, -8.54092172219159 ], [ 122.94067177386118, -8.53903154019158 ], [ 122.94270119286118, -8.53781274419159 ], [ 122.9446848358612, -8.53641370419157 ], [ 122.9496973478612, -8.53555444319155 ], [ 122.95288643486121, -8.53541520719155 ], [ 122.95623573886125, -8.53533891319156 ], [ 122.95928749686122, -8.5354762421916 ], [ 122.96117958686118, -8.53475812519158 ], [ 122.96296486486123, -8.53369001019157 ], [ 122.96493324886119, -8.5326943741916 ], [ 122.96700844386116, -8.53159955619159 ], [ 122.96974739686122, -8.52789262419159 ], [ 122.97113594686122, -8.52555898219159 ], [ 122.97211250886123, -8.52262357319156 ], [ 122.97316536486123, -8.51999429319155 ], [ 122.97474464986117, -8.51653245519159 ], [ 122.97584328286125, -8.5143504481916 ], [ 122.97730812686125, -8.51277021019157 ], [ 122.98029884886118, -8.50983384719157 ], [ 122.98200783386123, -8.50803044919157 ], [ 122.98519692086124, -8.50573114019155 ], [ 122.98776802686125, -8.50403932219157 ], [ 122.9911478478612, -8.50164464519158 ], [ 122.98770699086121, -8.50096562919159 ], [ 122.98312172486116, -8.50234464219155 ], [ 122.98078713086117, -8.50290921719155 ], [ 122.9787348228612, -8.50333169519157 ], [ 122.9763468228612, -8.50367215719157 ], [ 122.9739054168612, -8.50389627019157 ], [ 122.97023567786123, -8.50344232119155 ], [ 122.96687874386116, -8.50248006419158 ], [ 122.96277412986119, -8.50034860219156 ], [ 122.9563272918612, -8.49890855419155 ], [ 122.95345863886125, -8.49849275219159 ], [ 122.95000252386119, -8.4960513451916 ], [ 122.9502085168612, -8.49116090419155 ], [ 122.95121559686122, -8.4885297161916 ], [ 122.9520853478612, -8.48520902219158 ], [ 122.95312294586124, -8.48315290019158 ], [ 122.95355782186122, -8.47919324519156 ], [ 122.95384010886123, -8.4760852201916 ], [ 122.95418343186115, -8.47188428519157 ], [ 122.95447334886119, -8.46957448519159 ], [ 122.95593819286118, -8.46606687119159 ], [ 122.9583567108612, -8.46299413319158 ], [ 122.9602335418612, -8.46035817719157 ], [ 122.96181282586114, -8.45765832519159 ], [ 122.96278175986122, -8.45570901519155 ], [ 122.96452126086119, -8.45351937819159 ], [ 122.96508583686118, -8.45155194819156 ], [ 122.96677956186117, -8.45015958419159 ], [ 122.96990761386125, -8.44878247819158 ], [ 122.9724405728612, -8.44697431119155 ], [ 122.97553047786123, -8.44536450919158 ], [ 122.97772774286118, -8.44427922819155 ], [ 122.98167976986115, -8.44276193219158 ], [ 122.98489937386118, -8.44309762519159 ], [ 122.98711952786122, -8.4436793671916 ], [ 122.98995003286124, -8.44376233619155 ], [ 122.99218544586124, -8.44288304919157 ], [ 122.99522194486126, -8.44354871319157 ], [ 122.99715981086119, -8.44409421519159 ], [ 122.99920448886125, -8.44432023619159 ] ] ] } },
{ "type": "Feature", "properties": { "OBJECTID": 179121.0, "LAYER": "Jalan", "NAMA_UNSUR": "Jalan Kabupaten", "PULAU": "Nusa Tenggara Timur", "panjang_km": 0.451 }, "geometry": { "type": "MultiLineString", "coordinates": [ [ [ 122.95032522758977, -8.20098476739274 ], [ 122.94633505458985, -8.20009403539273 ] ] ] } },
{ "type": "Feature", "properties": { "OBJECTID": 179246.0, "LAYER": "Jalan", "NAMA_UNSUR": "Jalan Kabupaten", "PULAU": "Nusa Tenggara Timur", "panjang_km": 9.986 }, "geometry": { "type": "MultiLineString", "coordinates": [ [ [ 122.99069998358978, -8.27519970239273 ], [ 122.98780844258984, -8.27628212339276 ], [ 122.98490164358982, -8.27774982739276 ], [ 122.98267386058986, -8.27821617439274 ], [ 122.97972891458978, -8.27921848639277 ], [ 122.97621939258984, -8.27902584439277 ], [ 122.97373220958976, -8.27891712539274 ], [ 122.97160360858977, -8.27875690739272 ], [ 122.96924612558981, -8.27857857039276 ], [ 122.96647665558983, -8.27839737239275 ], [ 122.96438620158979, -8.27864914239273 ], [ 122.96215841858982, -8.27928619739275 ], [ 122.95996115258977, -8.28038864439275 ], [ 122.95778677558981, -8.28218155239272 ], [ 122.95457480058981, -8.28398018239271 ], [ 122.95315573258979, -8.28556042039274 ], [ 122.95126364358983, -8.28753357239275 ], [ 122.94778463958978, -8.28989582339272 ], [ 122.94533560358975, -8.29132919639271 ], [ 122.94294760258977, -8.29282455739274 ], [ 122.93967459258984, -8.29559021339275 ], [ 122.93836996658975, -8.29743175839274 ], [ 122.93756887958985, -8.29945354739276 ], [ 122.93457052758977, -8.30269604039272 ], [ 122.9324190385898, -8.30396824239272 ], [ 122.9279482135898, -8.30772381139274 ], [ 122.92577383558985, -8.31060963039277 ], [ 122.92382834058976, -8.31343441339276 ], [ 122.92275259558978, -8.31630592639276 ], [ 122.92305777158977, -8.31929188139275 ], [ 122.92360708758982, -8.32206325839273 ] ] ] } },
{ "type": "Feature", "properties": { "OBJECTID": 179432.0, "LAYER": "Jalan", "NAMA_UNSUR": "Jalan Propinsi", "PULAU": "Nusa Tenggara Timur", "panjang_km": 18.246 }, "geometry": { "type": "MultiLineString", "coordinates": [ [ [ 122.92360708758982, -8.32206325839273 ], [ 122.92858145358976, -8.32960014639274 ], [ 122.93075583058983, -8.33112411839271 ], [ 122.93346426558976, -8.33244209639274 ], [ 122.93603537158977, -8.33397560439277 ], [ 122.93927023458976, -8.33616524039273 ], [ 122.94277212658979, -8.33773784939273 ], [ 122.9456560385898, -8.33996181839273 ], [ 122.94983694658977, -8.34133892339274 ], [ 122.95298788658984, -8.34308891639272 ], [ 122.95543692158977, -8.34693889939273 ], [ 122.9571687945898, -8.34956913339277 ], [ 122.96149466158984, -8.34976463639275 ], [ 122.96429464858984, -8.34813480739273 ], [ 122.96751425358975, -8.34618454339271 ], [ 122.97138235658981, -8.34635238939272 ], [ 122.9748995075898, -8.34552364639272 ], [ 122.97698996158984, -8.34489803639274 ], [ 122.9826357135898, -8.34221916539274 ], [ 122.98444387958985, -8.33946590739275 ], [ 122.98640463458976, -8.33657913539274 ], [ 122.98822805958976, -8.33390598639277 ], [ 122.98985312058979, -8.33197670339273 ], [ 122.99238607958985, -8.33139973039276 ], [ 122.99511740258977, -8.33057670939273 ], [ 122.99781057958985, -8.32869606339272 ], [ 123.00081656058985, -8.32693748839272 ], [ 123.0032198195898, -8.32337551439274 ], [ 123.00515768558985, -8.32179622939275 ], [ 123.00770590358975, -8.31938629439275 ], [ 123.00923941258982, -8.31756382339272 ], [ 123.0107500325898, -8.31506042839276 ], [ 123.01157400658981, -8.31268768639272 ], [ 123.01181051858983, -8.30898838339276 ], [ 123.01129934858984, -8.30541973439272 ], [ 123.01020071558976, -8.30303268739276 ], [ 123.01009390458985, -8.29959946039274 ], [ 123.01060507358984, -8.29624920239273 ], [ 123.01110098458976, -8.29318600039271 ], [ 123.01103994958983, -8.28980713239274 ], [ 123.01076529058976, -8.28727894139273 ], [ 123.00975058158981, -8.28461342139274 ], [ 123.0075380575898, -8.28258114139276 ], [ 123.00399801858983, -8.28174286239276 ], [ 123.00081656058985, -8.28112011239272 ], [ 122.99768850858977, -8.27821903539273 ], [ 122.99069998358978, -8.27519970239273 ] ] ] } },
{ "type": "Feature", "properties": { "OBJECTID": 179499.0, "LAYER": "Jalan", "NAMA_UNSUR": "Jalan Lain", "PULAU": "Nusa Tenggara Timur", "panjang_km": 19.561 }, "geometry": { "type": "MultiLineString", "coordinates": [ [ [ 123.21170731879103, -8.24654537326488 ], [ 123.2159645207911, -8.2469544992649 ], [ 123.21918412579102, -8.24846130426486 ], [ 123.22391435079102, -8.24860244826486 ], [ 123.22617265079101, -8.24869972326489 ], [ 123.22816392279107, -8.24929767726489 ], [ 123.22996445979108, -8.25125747826489 ], [ 123.232825482791, -8.25417095326484 ], [ 123.23516770779101, -8.25587230826487 ], [ 123.23866959979104, -8.2563596352649 ], [ 123.24312516579108, -8.25620418626486 ], [ 123.24569627179109, -8.25585323426484 ], [ 123.24836655979108, -8.25556617826485 ], [ 123.25075456079107, -8.25520664326488 ], [ 123.25278397879107, -8.25517707926489 ], [ 123.25494309779107, -8.25458389426488 ], [ 123.25756760979108, -8.25417190626488 ], [ 123.26004716279103, -8.25433117026487 ], [ 123.26280137479104, -8.25468116826486 ], [ 123.26632615479106, -8.25459438426484 ], [ 123.26924058279111, -8.25426250526486 ], [ 123.27304002179109, -8.25447231426487 ], [ 123.27627488479108, -8.25460868926488 ], [ 123.280394757791, -8.25432640126489 ], [ 123.28584977479103, -8.25386863826484 ], [ 123.288542951791, -8.25432449426487 ], [ 123.29218980179111, -8.25418430426485 ], [ 123.29580613479108, -8.25359588726489 ], [ 123.29821702379105, -8.25277858826488 ], [ 123.30059739479101, -8.25368171826487 ], [ 123.3034431587911, -8.25574356226489 ], [ 123.30673905779101, -8.25679451126488 ], [ 123.30895921079106, -8.25751834926488 ], [ 123.31340714779107, -8.25861698226485 ], [ 123.31674119379103, -8.26012378826486 ], [ 123.31843491879103, -8.26213604026485 ], [ 123.31888505379108, -8.26461177926488 ], [ 123.31800004379103, -8.26715427526487 ], [ 123.31606980679102, -8.27100425826488 ], [ 123.31415482879108, -8.2768226252649 ], [ 123.30953904479101, -8.28119999026488 ], [ 123.30685349879106, -8.28405910626484 ], [ 123.304656232791, -8.28962665626487 ], [ 123.30326005379108, -8.29317146426488 ], [ 123.30245896679106, -8.29656654426485 ], [ 123.30210038579106, -8.29997974526485 ], [ 123.30111619379103, -8.30457454826488 ], [ 123.30081864679109, -8.30701976826485 ], [ 123.30037614279105, -8.31002956526485 ], [ 123.29960557379106, -8.31267982626489 ], [ 123.29728623779103, -8.31727081426486 ], [ 123.29366990479106, -8.31814724026485 ] ] ] } },
{ "type": "Feature", "properties": { "OBJECTID": 179507.0, "LAYER": "Jalan", "NAMA_UNSUR": "Jalan Lain", "PULAU": "Nusa Tenggara Timur", "panjang_km": 0.293 }, "geometry": { "type": "MultiLineString", "coordinates": [ [ [ 123.23694535579104, -8.29806476726484 ], [ 123.23951646179104, -8.29874569026485 ] ] ] } },
{ "type": "Feature", "properties": { "OBJECTID": 179508.0, "LAYER": "Jalan", "NAMA_UNSUR": "Jalan Lain", "PULAU": "Nusa Tenggara Timur", "panjang_km": 8.226 }, "geometry": { "type": "MultiLineString", "coordinates": [ [ [ 123.29366990479106, -8.31814724026485 ], [ 123.29337998779103, -8.31465011726486 ], [ 123.29333421079106, -8.31099372926489 ], [ 123.29295274179107, -8.30709320126486 ], [ 123.29284592979106, -8.30365234426487 ], [ 123.29142686279103, -8.29971271626486 ], [ 123.28889390379108, -8.29617363026487 ], [ 123.28539964079108, -8.29328495126485 ], [ 123.28151627879107, -8.29226833426484 ], [ 123.27712174779107, -8.29237133126484 ], [ 123.27468034179107, -8.29261451826487 ], [ 123.27177354179106, -8.29306179126489 ], [ 123.26933213579106, -8.29324203626485 ], [ 123.26663895979108, -8.29290157426486 ], [ 123.26367875479106, -8.2930703742649 ], [ 123.25999375679102, -8.29388385826489 ], [ 123.25724717479103, -8.29554229826486 ], [ 123.25409623479108, -8.2962127312649 ], [ 123.25050279079109, -8.29652362926485 ], [ 123.24677964579111, -8.29693275526487 ], [ 123.24180528079104, -8.29816204126488 ], [ 123.23951646179104, -8.29874569026485 ] ] ] } },
{ "type": "Feature", "properties": { "OBJECTID": 179510.0, "LAYER": "Jalan", "NAMA_UNSUR": "Jalan Lain", "PULAU": "Nusa Tenggara Timur", "panjang_km": 11.193 }, "geometry": { "type": "MultiLineString", "coordinates": [ [ [ 123.23951646179104, -8.29874569026485 ], [ 123.23903581079107, -8.30255371226489 ], [ 123.24093552979106, -8.3049255002649 ], [ 123.24207230979108, -8.31091648226485 ], [ 123.24194260979108, -8.31342559926484 ], [ 123.2409431587911, -8.31841426926489 ], [ 123.24023362479103, -8.32095676526488 ], [ 123.23949357379105, -8.32412677826487 ], [ 123.23857041679106, -8.32631069326485 ], [ 123.23694535579104, -8.32887703026487 ], [ 123.23497697279107, -8.32993656226487 ], [ 123.23219224379103, -8.33136230526484 ], [ 123.22977372579102, -8.3345180142649 ], [ 123.226889813791, -8.33788639126486 ], [ 123.22408219679109, -8.34182983526487 ], [ 123.22027512879107, -8.34624439326488 ], [ 123.21807786379101, -8.34860283026488 ], [ 123.21526261679107, -8.35037666426488 ], [ 123.2115699897911, -8.35147529726485 ], [ 123.20836564479102, -8.35311370926489 ], [ 123.20709153579106, -8.35775142726485 ], [ 123.20678635979108, -8.36031395026485 ], [ 123.20510789279105, -8.36383873126486 ], [ 123.20276566879103, -8.36665397726487 ], [ 123.20014115679102, -8.36837440626486 ], [ 123.19703599379103, -8.37012916626484 ], [ 123.1948921337911, -8.37158352026487 ], [ 123.19229813979111, -8.37370735226487 ], [ 123.1898033277911, -8.37606483526489 ] ] ] } },
{ "type": "Feature", "properties": { "OBJECTID": 180149.0, "LAYER": "Jalan", "NAMA_UNSUR": "Jalan Lain", "PULAU": "Nusa Tenggara Timur", "panjang_km": 17.493 }, "geometry": { "type": "MultiLineString", "coordinates": [ [ [ 123.03451463079104, -8.39965110926486 ], [ 123.03915330279109, -8.3985391242649 ], [ 123.04407426279103, -8.3973117452649 ], [ 123.04836961179105, -8.39686256526486 ], [ 123.05171891579108, -8.39700943126489 ], [ 123.05520554879105, -8.39760452326486 ], [ 123.05905839379103, -8.39804798226485 ], [ 123.06349870079102, -8.39823585626486 ], [ 123.06620713579106, -8.39846950626484 ], [ 123.07044907979106, -8.39903980326487 ], [ 123.07517930379107, -8.40043789026485 ], [ 123.07792588579106, -8.40094905926484 ], [ 123.08115311979101, -8.40108638826488 ], [ 123.08533402779109, -8.40177398826487 ], [ 123.08791276379101, -8.40228420326489 ], [ 123.09086533879101, -8.40217834526485 ], [ 123.09406968479108, -8.40173393326488 ], [ 123.09976121279102, -8.40111881326485 ], [ 123.10292741179104, -8.40016227826485 ], [ 123.10680314479102, -8.39901023926488 ], [ 123.10981675479105, -8.39765030026488 ], [ 123.11343308779102, -8.39579921826485 ], [ 123.11557694779107, -8.3946328742649 ], [ 123.11767503179102, -8.39318042826487 ], [ 123.12173386979102, -8.39065891326485 ], [ 123.12451096879103, -8.38945823726486 ], [ 123.12795182579102, -8.38886123726489 ], [ 123.13244553979111, -8.38910061026489 ], [ 123.13803025579104, -8.38956886426488 ], [ 123.14177628879101, -8.38977962626488 ], [ 123.14501878179102, -8.38956695626488 ], [ 123.14776536379101, -8.38911014626488 ], [ 123.15119859079108, -8.38856655226486 ], [ 123.15478440679102, -8.38848930426489 ], [ 123.15882035579104, -8.38865619726486 ], [ 123.16310044679109, -8.38841110326488 ], [ 123.16947862079111, -8.38704448826489 ], [ 123.17382737479103, -8.38568836326486 ], [ 123.17903825179111, -8.38316017226485 ], [ 123.18212052679111, -8.38168388426486 ], [ 123.18537827879108, -8.38010936826485 ], [ 123.18757554379103, -8.3789430242649 ] ] ] } },
{ "type": "Feature", "properties": { "OBJECTID": 180340.0, "LAYER": "Jalan", "NAMA_UNSUR": "Jalan Propinsi", "PULAU": "Nusa Tenggara Timur", "panjang_km": 22.468 }, "geometry": { "type": "MultiLineString", "coordinates": [ [ [ 122.92360708758982, -8.32206325839273 ], [ 122.91938040358976, -8.32427769039275 ], [ 122.91577932958985, -8.32473831539277 ], [ 122.91153738558985, -8.32626324039272 ], [ 122.90952322558981, -8.32821827239274 ], [ 122.9050752885898, -8.33259086939272 ], [ 122.90392324958982, -8.33694153139276 ], [ 122.90413687258986, -8.34042816439272 ], [ 122.90064261058986, -8.34318333039277 ], [ 122.89836905058981, -8.34462623939276 ], [ 122.89649984958983, -8.34614162739273 ], [ 122.89447805958976, -8.34833793939275 ], [ 122.89309713958978, -8.35033111939275 ], [ 122.89093039158975, -8.35429172839274 ], [ 122.88948843558985, -8.35736923539274 ], [ 122.88848135558983, -8.35910301539274 ], [ 122.88692495858977, -8.36108665739276 ], [ 122.88436911158983, -8.36365681039273 ], [ 122.88200399958983, -8.36566429439272 ], [ 122.8796083695898, -8.36956100739274 ], [ 122.8784258135898, -8.37214641839272 ], [ 122.87640402358984, -8.37542610439276 ], [ 122.87516043258979, -8.37805633839274 ], [ 122.87332937758977, -8.38008194239272 ], [ 122.87186453458976, -8.38248710939273 ], [ 122.87055990758979, -8.38545685139274 ], [ 122.86964438058983, -8.38741569839276 ], [ 122.86770651458978, -8.39018516839274 ], [ 122.86550161958981, -8.39260464039272 ], [ 122.86235067958985, -8.39548569039276 ], [ 122.85946676858983, -8.39741974239273 ], [ 122.85727713158981, -8.39852123539275 ], [ 122.85504934858984, -8.40018730439276 ], [ 122.85235617258975, -8.40274029139276 ], [ 122.84951040858978, -8.40325622839275 ], [ 122.84714529558978, -8.40320186939276 ], [ 122.84308645758979, -8.40228062039272 ], [ 122.84089682158977, -8.40211944939272 ], [ 122.8367922075898, -8.40233593339274 ], [ 122.83458731258982, -8.40349083239277 ], [ 122.83258841158984, -8.40620689739272 ], [ 122.83038351658975, -8.40861683239273 ], [ 122.82909414858985, -8.41016273839272 ], [ 122.82846090858978, -8.41219311039275 ], [ 122.82793448058983, -8.41461067539273 ], [ 122.82655356058986, -8.41678314539273 ], [ 122.82318136758984, -8.41708164539272 ], [ 122.8210146195898, -8.41538791939273 ], [ 122.81996939258984, -8.41231136639276 ], [ 122.81806967358985, -8.41090469639277 ], [ 122.81559012058979, -8.41301803939273 ], [ 122.81437704658977, -8.41519146239272 ], [ 122.81208822758977, -8.41709022839273 ], [ 122.80859396558976, -8.41640358239276 ], [ 122.80666372858975, -8.41586666439274 ], [ 122.80299398958978, -8.41625385639275 ], [ 122.8003008135898, -8.41699676839277 ], [ 122.79773733658983, -8.41744213439272 ], [ 122.79517386058986, -8.41669731439275 ], [ 122.79226706058985, -8.41587906239277 ], [ 122.78957388458976, -8.41534691139275 ], [ 122.78653738558985, -8.41498546939276 ], [ 122.78321859958983, -8.41443424539272 ], [ 122.77684805458985, -8.41752701139272 ] ] ] } },
{ "type": "Feature", "properties": { "OBJECTID": 180341.0, "LAYER": "Jalan", "NAMA_UNSUR": "Jalan Kabupaten", "PULAU": "Nusa Tenggara Timur", "panjang_km": 28.68 }, "geometry": { "type": "MultiLineString", "coordinates": [ [ [ 122.80208609158986, -8.13265400239276 ], [ 122.80493948558986, -8.13227062539277 ], [ 122.80687735158979, -8.13156109139276 ], [ 122.80990622158977, -8.13014965339277 ], [ 122.81170675858978, -8.12897281939273 ], [ 122.8138963945898, -8.12798672039274 ], [ 122.81610891858982, -8.12659817039274 ], [ 122.81954214658977, -8.12384205139272 ], [ 122.82258627458982, -8.12215118739276 ], [ 122.82411978358978, -8.12049942339273 ], [ 122.82559988558985, -8.11759357739276 ], [ 122.82710287658979, -8.11525993639275 ], [ 122.8281328445898, -8.11342697439271 ], [ 122.82962057658979, -8.11126404139275 ], [ 122.83250448758982, -8.10825615239274 ], [ 122.83453390658981, -8.10697346039273 ], [ 122.83642599658977, -8.10517959939272 ], [ 122.83777639958983, -8.10368709839274 ], [ 122.84034750558983, -8.10083847339273 ], [ 122.84326193458976, -8.10045605039271 ], [ 122.84679434358982, -8.10032635039277 ], [ 122.85135672158977, -8.10053329739275 ], [ 122.85549948258979, -8.10083561239275 ], [ 122.85958120858977, -8.10137157739273 ], [ 122.8639833695898, -8.10225754139275 ], [ 122.86698172158977, -8.10342579239272 ], [ 122.87025473158981, -8.10506134339277 ], [ 122.87287924358982, -8.10684566839273 ], [ 122.8752901325898, -8.10821705139272 ], [ 122.87810537858975, -8.10967140539275 ], [ 122.88142416558976, -8.11040096639276 ], [ 122.88542959758975, -8.11115150739277 ], [ 122.88820669758975, -8.11230926839277 ], [ 122.89135000758979, -8.11399631839275 ], [ 122.89417288358977, -8.11533432339273 ], [ 122.89851400958976, -8.11531524939271 ], [ 122.9012987385898, -8.11407070439275 ], [ 122.90338919258984, -8.11285953839273 ], [ 122.90549490558983, -8.11123733839274 ], [ 122.90783712958985, -8.10956173239275 ], [ 122.91082022258975, -8.10884647639272 ], [ 122.91300985858977, -8.10900764739272 ], [ 122.91597769358982, -8.10982494639272 ], [ 122.91806051858983, -8.11072044739273 ], [ 122.92028067158977, -8.11248569839272 ], [ 122.92266867258975, -8.11448364539273 ], [ 122.92542288358977, -8.11603527339274 ], [ 122.93082449558979, -8.11702137339272 ], [ 122.93721792758977, -8.11925297139276 ], [ 122.93956015158979, -8.12096481639275 ], [ 122.94278738558985, -8.12332611439273 ], [ 122.94506094558979, -8.12509041139275 ], [ 122.94773123358978, -8.12721615139275 ], [ 122.94919607758978, -8.12893371939275 ], [ 122.95014212258975, -8.13075619039272 ], [ 122.95159933658984, -8.13276081439271 ], [ 122.95318625058981, -8.13564281739274 ], [ 122.95515463458976, -8.13784580539276 ], [ 122.95836660958976, -8.14159565339274 ], [ 122.96086905058981, -8.14342480039271 ], [ 122.9644396075898, -8.14479046139273 ], [ 122.96671316658986, -8.14563255639273 ], [ 122.96759054758975, -8.14859371539272 ], [ 122.96788809358982, -8.15060310639273 ], [ 122.96918509058976, -8.15449695939275 ], [ 122.96988699558979, -8.15881042839276 ], [ 122.97004721258982, -8.16122131639274 ], [ 122.96921560858978, -8.16393452039272 ], [ 122.96830771058985, -8.16691570639272 ], [ 122.96715567158977, -8.17001228639275 ], [ 122.96653769058976, -8.17192821839273 ], [ 122.96595022758977, -8.17424755439275 ], [ 122.96588156258981, -8.17881660739276 ], [ 122.96532461758984, -8.18079548239273 ], [ 122.96495077658979, -8.18346481639275 ], [ 122.96406576758984, -8.18593483239276 ], [ 122.96308157558981, -8.18931846939272 ], [ 122.96209738358978, -8.19144802439273 ], [ 122.96078512758977, -8.19333439239272 ], [ 122.95739767658979, -8.19501571939275 ], [ 122.95439932458983, -8.19608002039273 ], [ 122.95208761758984, -8.19711857139275 ], [ 122.95073721458978, -8.19870930039274 ], [ 122.95032522758977, -8.20098476739274 ] ] ] } },
{ "type": "Feature", "properties": { "OBJECTID": 181147.0, "LAYER": "Jalan", "NAMA_UNSUR": "Jalan Lain", "PULAU": "Nusa Tenggara Timur", "panjang_km": 35.443 }, "geometry": { "type": "MultiLineString", "coordinates": [ [ [ 123.21170731879103, -8.24654537326488 ], [ 123.20975419379103, -8.24749714026488 ], [ 123.20842667979106, -8.24984127126485 ], [ 123.20650407179109, -8.25221973526486 ], [ 123.20384904279105, -8.25336700526485 ], [ 123.19937821779105, -8.25370079126484 ], [ 123.1974098337911, -8.25156074626487 ], [ 123.19512864479101, -8.2510600672649 ], [ 123.19076463079104, -8.25036483826487 ], [ 123.18868943579106, -8.25027710026488 ], [ 123.18604203579106, -8.2489143002649 ], [ 123.18325730679102, -8.24685341026484 ], [ 123.18138810479105, -8.24603038926487 ], [ 123.17756577879108, -8.24501472526485 ], [ 123.17504044879105, -8.24480014926489 ], [ 123.171149457791, -8.24617534726489 ], [ 123.16895982179109, -8.24723487926489 ], [ 123.16561051779105, -8.24949031926489 ], [ 123.16269608879101, -8.25114780526489 ], [ 123.15877457979106, -8.25206524026485 ], [ 123.15732499479101, -8.2498393642649 ], [ 123.15544816379101, -8.24852901526485 ], [ 123.15302964579111, -8.24679428226487 ], [ 123.15000840579104, -8.24598652026485 ], [ 123.14614793179102, -8.24571376926489 ], [ 123.14295121579109, -8.24603420326489 ], [ 123.13944932379106, -8.24669414626485 ], [ 123.13706132279107, -8.2480207072649 ], [ 123.13133927679111, -8.25046497426488 ], [ 123.12944718779103, -8.25244861726484 ], [ 123.12792893779103, -8.25393158026484 ], [ 123.1250145087911, -8.25654655526487 ], [ 123.12237473879101, -8.25981193626488 ], [ 123.12004014379103, -8.26136737926485 ], [ 123.11848374779107, -8.26305347526486 ], [ 123.11585923579106, -8.26508289426486 ], [ 123.11272355479106, -8.26764351026484 ], [ 123.1092369207911, -8.26903873526485 ], [ 123.1066658147911, -8.27082115226487 ], [ 123.10502549579111, -8.27229457926488 ], [ 123.10233994879106, -8.27406841426487 ], [ 123.10060044679109, -8.27530819026485 ], [ 123.0984947337911, -8.27687793826486 ], [ 123.09570237479103, -8.27831131126485 ], [ 123.09352799779107, -8.27901989126489 ], [ 123.09090348579106, -8.27953964326489 ], [ 123.08817216279103, -8.27982574526485 ], [ 123.085211957791, -8.28124004426489 ], [ 123.082694257791, -8.28302436926485 ], [ 123.0802223337911, -8.28503948326486 ], [ 123.078452313791, -8.28690677726489 ], [ 123.07646867179109, -8.28836971426487 ], [ 123.07358476079106, -8.2905908212649 ], [ 123.07149430679102, -8.29187255926488 ], [ 123.06861039579111, -8.2928395852649 ], [ 123.06505509779107, -8.29391342226488 ], [ 123.06091233579106, -8.29641395626485 ], [ 123.05910416979101, -8.29799324126484 ], [ 123.05746384979103, -8.29943233626487 ], [ 123.05435868679105, -8.30115657926488 ], [ 123.05116959979104, -8.30305343726489 ], [ 123.04858323479108, -8.30408817426489 ], [ 123.04659959179106, -8.30520874126487 ], [ 123.04444810279109, -8.30641609326487 ], [ 123.04256364279105, -8.30736118426487 ], [ 123.04064103479108, -8.30876976126488 ], [ 123.03613969179106, -8.31354766926487 ], [ 123.03458329579111, -8.31543308326489 ], [ 123.03298112279107, -8.31724697226489 ], [ 123.03081437479103, -8.32013374426485 ], [ 123.02920457279107, -8.3222327812649 ], [ 123.0272819647911, -8.32484298826487 ], [ 123.02501603479108, -8.32858043726484 ], [ 123.02339097379105, -8.33205085826487 ], [ 123.02163621279102, -8.33477741326486 ], [ 123.02007218779103, -8.33705669526487 ], [ 123.01765366879103, -8.33924347026486 ], [ 123.01615067879108, -8.34152275226488 ], [ 123.0149452337911, -8.34473568026486 ], [ 123.01321336179105, -8.34917408126487 ], [ 123.01200791679106, -8.35129314526487 ], [ 123.00985642779109, -8.35624176126485 ], [ 123.00829240179111, -8.35862690026486 ], [ 123.0067741527911, -8.36113983226486 ], [ 123.00466081079107, -8.36528068626488 ], [ 123.00323411379101, -8.36847549526486 ], [ 123.00241776879103, -8.37066703926488 ], [ 123.005698407791, -8.37092167026485 ], [ 123.008216107791, -8.37148624526484 ], [ 123.00825425479105, -8.37422901226487 ], [ 123.00894090079102, -8.37654358026485 ], [ 123.01097031979101, -8.37873798426487 ], [ 123.0147926457911, -8.37861686826487 ], [ 123.01647874279105, -8.3818231212649 ], [ 123.01932450679102, -8.38388591826485 ], [ 123.02255936979101, -8.38499122726487 ], [ 123.02541276379101, -8.38682895726485 ], [ 123.02641221379101, -8.38881450726488 ], [ 123.02765580579104, -8.3916583642649 ], [ 123.03451463079104, -8.39965110926486 ] ] ] } },
{ "type": "Feature", "properties": { "OBJECTID": 181148.0, "LAYER": "Jalan", "NAMA_UNSUR": "Jalan Kabupaten", "PULAU": "Nusa Tenggara Timur", "panjang_km": 22.131 }, "geometry": { "type": "MultiLineString", "coordinates": [ [ [ 122.78820059358982, -8.49213486039274 ], [ 122.79245779558978, -8.49699097039273 ], [ 122.7950594195898, -8.49808674139273 ], [ 122.80010244958983, -8.49997120239276 ], [ 122.8061601885898, -8.50332908939275 ], [ 122.8085481885898, -8.50634937639272 ], [ 122.81134817658979, -8.51014213839271 ], [ 122.81394217058978, -8.51248150239273 ], [ 122.81877920658981, -8.51499252639274 ], [ 122.82105276658986, -8.51778011639276 ], [ 122.82252523958978, -8.52076130239276 ], [ 122.82464621158984, -8.52429085139277 ], [ 122.82685873558985, -8.52724724139272 ], [ 122.82801077458983, -8.53061180439277 ], [ 122.82911703658984, -8.53472023339275 ], [ 122.82941458258979, -8.53782158239271 ], [ 122.82981894058976, -8.54007129939275 ], [ 122.82988760558983, -8.54407673239273 ], [ 122.83043692158977, -8.54690151539272 ], [ 122.83084127958985, -8.55023651439273 ], [ 122.83136770758979, -8.55231647839274 ], [ 122.83148977858976, -8.55540829039272 ], [ 122.83164236658975, -8.55895691239276 ], [ 122.83222982958985, -8.56110077239275 ], [ 122.83152792558981, -8.56461029339276 ], [ 122.8307268385898, -8.56652336439275 ], [ 122.82756064058977, -8.57180576639273 ], [ 122.82566855058981, -8.57377796539275 ], [ 122.82281515658981, -8.57633667339273 ], [ 122.8212206135898, -8.57767372439274 ] ], [ [ 122.82281515658981, -8.57633667339273 ], [ 122.8212206135898, -8.57767372439274 ], [ 122.81737539858985, -8.58312301939275 ], [ 122.81504080358975, -8.58472614639276 ], [ 122.81186697558981, -8.58663921639276 ], [ 122.80722067458983, -8.58934288339275 ], [ 122.80234549158975, -8.59198360739275 ], [ 122.80044577158976, -8.59287052439275 ], [ 122.79690573258979, -8.59447651239275 ], [ 122.79396078658984, -8.59548549939273 ], [ 122.79026815958976, -8.59646492339276 ], [ 122.78622458058983, -8.59639339739276 ], [ 122.78288290558983, -8.59618168239273 ], [ 122.78018972958985, -8.59582977639274 ], [ 122.77354452658979, -8.59707336739273 ], [ 122.7689745195898, -8.59926681839277 ], [ 122.76612875558983, -8.60062485039275 ], [ 122.76380178958978, -8.60097389539276 ], [ 122.76102469058976, -8.60102444039272 ], [ 122.75653097758978, -8.60081749239275 ], [ 122.75398275958976, -8.60081463139271 ], [ 122.75052664358982, -8.60071926439274 ], [ 122.74462912158977, -8.60084610339276 ], [ 122.74182913358977, -8.60032253539275 ], [ 122.73870871158984, -8.60132198639274 ] ] ] } },
{ "type": "Feature", "properties": { "OBJECTID": 183124.0, "LAYER": "Jalan", "NAMA_UNSUR": "Jalan Kabupaten", "PULAU": "Nusa Tenggara Timur", "panjang_km": 16.606 }, "geometry": { "type": "MultiLineString", "coordinates": [ [ [ 122.94633505458985, -8.20009403539273 ], [ 122.94612143158982, -8.19639282539275 ], [ 122.94441244658977, -8.19494228639273 ], [ 122.94262716858982, -8.19371776939277 ], [ 122.94038412658979, -8.19224720339274 ], [ 122.93791220258977, -8.19087581939276 ], [ 122.93569204858984, -8.18922787039275 ], [ 122.93328878958978, -8.18774872139271 ], [ 122.93083212458983, -8.18718414639271 ], [ 122.92798636058986, -8.18728046739271 ], [ 122.92508719058976, -8.18857746439277 ], [ 122.92116568158981, -8.18840198839273 ], [ 122.91844961758984, -8.18725281039274 ], [ 122.91604635758979, -8.18576507839275 ], [ 122.91409323258979, -8.18442135139275 ], [ 122.91202566658986, -8.18301563539272 ], [ 122.91025564758975, -8.18162041039271 ], [ 122.90728781258981, -8.17850857139273 ], [ 122.90538046458978, -8.17641239439273 ], [ 122.90280935858978, -8.17480736139276 ], [ 122.89911673158981, -8.17344932839272 ], [ 122.89569876258982, -8.17249470039274 ], [ 122.89350149758975, -8.17256718039276 ], [ 122.89015219258984, -8.17344074539271 ], [ 122.88722250558983, -8.17416458439276 ], [ 122.8848497635898, -8.17417316739271 ], [ 122.88278982758978, -8.17390518539274 ], [ 122.88019583258979, -8.17487221039277 ], [ 122.87802145558983, -8.17539291739273 ], [ 122.87541220258977, -8.17567806539272 ], [ 122.87206289858985, -8.17553024639271 ], [ 122.86972067458983, -8.17501907639273 ], [ 122.86731741458978, -8.17462425539275 ], [ 122.86529562558981, -8.17452698039272 ], [ 122.86276266658986, -8.17429237639276 ], [ 122.85845205858978, -8.17386417739276 ], [ 122.85514090158979, -8.17308883939272 ], [ 122.85253927758977, -8.17313175539276 ], [ 122.85057852358985, -8.17401104339273 ], [ 122.84864828658984, -8.17569713939274 ], [ 122.8470461135898, -8.17745762139275 ], [ 122.84582541058985, -8.17974644039275 ], [ 122.84436056658986, -8.18121891339273 ], [ 122.8415224325898, -8.18457680039272 ], [ 122.83879110858977, -8.18720131239273 ], [ 122.83646414358982, -8.18857269639271 ], [ 122.83462545958976, -8.18940716139274 ], [ 122.83047506858982, -8.19030456839277 ], [ 122.82853720258977, -8.19095974239274 ], [ 122.82543203958978, -8.19156627939275 ], [ 122.82154867758977, -8.19081573839275 ], [ 122.81942007658979, -8.18716793339273 ], [ 122.81895468358978, -8.18503361039273 ] ] ] } },
{ "type": "Feature", "properties": { "OBJECTID": 183125.0, "LAYER": "Jalan", "NAMA_UNSUR": "Jalan Kabupaten", "PULAU": "Nusa Tenggara Timur", "panjang_km": 3.966 }, "geometry": { "type": "MultiLineString", "coordinates": [ [ [ 122.81895468358978, -8.18503361039273 ], [ 122.81694052258975, -8.18499832439271 ], [ 122.81494162158977, -8.18788605039275 ], [ 122.81311819658977, -8.19060306839275 ], [ 122.80963156258981, -8.19416408839276 ], [ 122.80752585058981, -8.19589405339274 ], [ 122.80536673158981, -8.19733696339272 ], [ 122.80355093558985, -8.19994621639272 ], [ 122.80159781058985, -8.20191841439275 ], [ 122.79859182958985, -8.20411949439272 ], [ 122.79711935558983, -8.20582561839273 ], [ 122.79512808358977, -8.20734005339272 ], [ 122.79304525958976, -8.20850639639274 ] ] ] } }
]
}
